[{"OBJECT_NAME":"TEVEL2-8","OBJECT_ID":"2025-052AF","EPOCH":"2026-03-09T16:02:08.542752","MEAN_MOTION":15.28392908,"ECCENTRICITY":0.0008031,"INCLINATION":97.4055,"RA_OF_ASC_NODE":324.2923,"ARG_OF_PERICENTER":124.9191,"MEAN_ANOMALY":235.2804,"EPHEMERIS_TYPE":0,"CLASSIFICATION_TYPE":"U","NORAD_CAT_ID":63239,"ELEMENT_SET_NO":999,"REV_AT_EPOCH":5480,"BSTAR":0.00069303947,"MEAN_MOTION_DOT":0.0001913,"MEAN_MOTION_DDOT":0},{"OBJECT_NAME":"STARLINK-34043","OBJECT_ID":"2025-092V","EPOCH":"2026-03-09T07:32:18.887136","MEAN_MOTION":15.27600198,"ECCENTRICITY":0.00024654,"INCLINATION":42.9973,"RA_OF_ASC_NODE":170.6146,"ARG_OF_PERICENTER":292.0007,"MEAN_ANOMALY":68.0583,"EPHEMERIS_TYPE":0,"CLASSIFICATION_TYPE":"U","NORAD_CAT_ID":63823,"ELEMENT_SET_NO":999,"REV_AT_EPOCH":4860,"BSTAR":0.0013039618,"MEAN_MOTION_DOT":0.00035818,"MEAN_MOTION_DDOT":0}]
